QIANFAN-1               
1 60379U 24140A   25228.33713246  .00000106  00000+0  14492-3 0  9993
2 60379  88.9835 311.5279 0017568 190.0621 170.0181 13.50958637 51351
QIANFAN-2               
1 60380U 24140B   25228.36584778  .00000106  00000+0  14564-3 0  9994
2 60380  88.9821 311.3808 0013892 161.2287 198.9379 13.50965177 51421
QIANFAN-3               
1 60381U 24140C   25228.37406217  .00000113  00000+0  15693-3 0  9999
2 60381  88.9814 311.5213 0014596 173.5545 186.5797 13.50959168 51331
QIANFAN-4               
1 60382U 24140D   25228.34948398  .00000108  00000+0  14911-3 0  9994
2 60382  88.9838 311.3918 0014034 163.7961 196.3642 13.50958832 51445
QIANFAN-5               
1 60383U 24140E   25228.32480061  .00000109  00000+0  14982-3 0  9990
2 60383  88.9813 311.5520 0015416 185.1856 174.9138 13.50961946 51314
QIANFAN-6               
1 60384U 24140F   25228.34531515  .00000101  00000+0  13748-3 0  9995
2 60384  88.9839 311.2647 0013941 169.3954 190.7494 13.50958353 51515
QIANFAN-7               
1 60385U 24140G   25228.35649403  .00000515  00000+0  20343-3 0  9991
2 60385  88.9839 307.6259 0017246  74.8918 285.4182 14.27513672 53509
QIANFAN-8               
1 60386U 24140H   25228.35360014  .00000097  00000+0  13204-3 0  9993
2 60386  88.9841 311.4992 0017289 173.1705 186.9685 13.50962293 51394
